{
  "norad_id": 59578,
  "name": "STARLINK-31685",
  "history": [
    {
      "epoch": "2026-03-28T21:24:53.957088Z",
      "apogee_km": 484.2365673735967,
      "perigee_km": 481.744468636507,
      "latitude_deg": -3.323293502023816e-05,
      "longitude_deg": 112.65602512561405,
      "height_km": 482.7617355832669,
      "semi_major_axis_km": 6861.127518005052,
      "eccentricity": 0.00018161,
      "inclination_deg": 42.9994,
      "raan_deg": 260.1871,
      "arg_perigee_deg": 270.2645,
      "mean_anomaly_deg": 89.7998,
      "mean_motion_rev_day": 15.27599563
    },
    {
      "epoch": "2026-03-29T03:41:31.424352Z",
      "apogee_km": 484.9732219368907,
      "perigee_km": 481.1021471798631,
      "latitude_deg": 1.9128652259455368e-05,
      "longitude_deg": 16.76427712492727,
      "height_km": 482.9931961441619,
      "semi_major_axis_km": 6861.174684558377,
      "eccentricity": 0.0002821,
      "inclination_deg": 42.9992,
      "raan_deg": 258.7092,
      "arg_perigee_deg": 264.7265,
      "mean_anomaly_deg": 95.3265,
      "mean_motion_rev_day": 15.27583811
    },
    {
      "epoch": "2026-03-30T03:13:52.031136Z",
      "apogee_km": 484.0580090778103,
      "perigee_km": 481.81169415359,
      "latitude_deg": 2.0225645931346666e-05,
      "longitude_deg": 17.173002542089808,
      "height_km": 482.8070386991836,
      "semi_major_axis_km": 6861.071851615699,
      "eccentricity": 0.0001637,
      "inclination_deg": 42.9991,
      "raan_deg": 253.1705,
      "arg_perigee_deg": 265.1266,
      "mean_anomaly_deg": 94.9399,
      "mean_motion_rev_day": 15.27618154
    },
    {
      "epoch": "2026-03-30T11:04:39.202176Z",
      "apogee_km": 483.5398936253232,
      "perigee_km": 482.3891496781125,
      "latitude_deg": -6.963375291731665e-06,
      "longitude_deg": -102.69201376911275,
      "height_km": 483.25271282750083,
      "semi_major_axis_km": 6861.101521651718,
      "eccentricity": 8.386e-05,
      "inclination_deg": 42.9991,
      "raan_deg": 251.3243,
      "arg_perigee_deg": 153.1526,
      "mean_anomaly_deg": 206.9369,
      "mean_motion_rev_day": 15.27608245
    },
    {
      "epoch": "2026-03-31T20:01:58.276128Z",
      "apogee_km": 484.23083399412553,
      "perigee_km": 481.8719574236811,
      "latitude_deg": 1.4065261299388412e-05,
      "longitude_deg": 113.86970964174418,
      "height_km": 482.9571919292849,
      "semi_major_axis_km": 6861.188395708903,
      "eccentricity": 0.0001719,
      "inclination_deg": 42.9985,
      "raan_deg": 243.5689,
      "arg_perigee_deg": 263.7192,
      "mean_anomaly_deg": 96.3464,
      "mean_motion_rev_day": 15.27579232
    },
    {
      "epoch": "2026-04-01T16:26:00.298752Z",
      "apogee_km": 483.8738234188095,
      "perigee_km": 482.17088366725966,
      "latitude_deg": -3.701613334793647e-05,
      "longitude_deg": 162.22220733492338,
      "height_km": 482.8408286548253,
      "semi_major_axis_km": 6861.159353543034,
      "eccentricity": 0.0001241,
      "inclination_deg": 42.9979,
      "raan_deg": 238.7677,
      "arg_perigee_deg": 267.1629,
      "mean_anomaly_deg": 92.908,
      "mean_motion_rev_day": 15.27588931
    },
    {
      "epoch": "2026-04-02T15:58:19.238016Z",
      "apogee_km": 483.49996267361075,
      "perigee_km": 482.6327065721134,
      "latitude_deg": 5.7355949310294625e-06,
      "longitude_deg": 162.63734446830318,
      "height_km": 483.26624937102184,
      "semi_major_axis_km": 6861.203334622862,
      "eccentricity": 6.32e-05,
      "inclination_deg": 42.9991,
      "raan_deg": 233.2284,
      "arg_perigee_deg": 191.753,
      "mean_anomaly_deg": 168.3307,
      "mean_motion_rev_day": 15.27574243
    }
  ]
}